OBJECT_NAME,OBJECT_ID,EPOCH,MEAN_MOTION,ECCENTRICITY,INCLINATION,RA_OF_ASC_NODE,ARG_OF_PERICENTER,MEAN_ANOMALY,EPHEMERIS_TYPE,CLASSIFICATION_TYPE,NORAD_CAT_ID,ELEMENT_SET_NO,REV_AT_EPOCH,BSTAR,MEAN_MOTION_DOT,MEAN_MOTION_DDOT
STARLINK-30231,2023-113V,2026-07-08T07:29:34.367712,15.27576320,.00010035,43.0024,54.7795,264.8186,95.2551,0,U,57514,999,16212,.36332803E-4,.738E-5,0
STARLINK-30081,2023-113W,2026-07-08T00:45:12.304224,15.27556778,.00017977,43.0042,56.1332,270.4856,89.5790,0,U,57515,999,16208,.25212363E-3,.6677E-4,0
STARLINK-30149,2023-113X,2026-07-08T01:05:33.287424,15.27584928,.00012912,43.0036,56.2327,301.9135,58.1591,0,U,57516,999,16198,.70100986E-4,.1668E-4,0
STARLINK-30259,2023-115A,2026-07-08T06:44:13.179840,15.27594409,.00018354,43.0026,40.6082,267.1995,92.8646,0,U,57521,999,16201,-.13213893E-3,-.3898E-4,0
STARLINK-30256,2023-115B,2026-07-07T23:24:53.453952,15.27582843,.00027971,43.0062,42.6126,257.1799,102.8740,0,U,57522,999,16074,.41867012E-4,.89E-5,0
STARLINK-30261,2023-115C,2026-07-08T07:04:34.452480,15.27585545,.00025669,43.0030,40.7069,261.9172,98.1388,0,U,57523,999,16079,-.3458754E-5,-.358E-5,0
STARLINK-30260,2023-115D,2026-07-08T06:38:41.158464,15.27595932,.00010835,43.0016,40.5930,2.1457,357.9399,0,U,57524,999,16079,-.1301837E-3,-.3844E-4,0
STARLINK-30253,2023-115E,2026-07-08T06:55:20.682048,15.27554047,.00006297,43.0033,40.6644,292.4734,67.6050,0,U,57525,999,16079,.3296684E-3,.8813E-4,0
STARLINK-30257,2023-115F,2026-07-08T06:49:47.670528,15.27578742,.00011654,43.0030,40.6600,265.7224,94.3494,0,U,57526,999,16079,.17902443E-3,.4667E-4,0
STARLINK-30250,2023-115G,2026-07-08T07:00:53.218368,15.27573365,.00013214,43.0028,40.6883,270.0425,90.0276,0,U,57527,999,16169,-.13037956E-4,-.621E-5,0
STARLINK-30269,2023-115H,2026-07-08T07:26:44.984832,15.27671934,.00022257,43.0029,40.8485,298.3819,61.6808,0,U,57528,999,16079,-.69397048E-3,-.19364E-3,0
STARLINK-30266,2023-115J,2026-07-07T22:27:32.347584,15.27584561,.00014354,43.0023,42.3194,261.1939,98.8750,0,U,57529,999,16074,.70358649E-4,.1675E-4,0
STARLINK-30270,2023-115K,2026-07-07T23:50:36.284928,15.27605750,.00009398,43.0040,41.9045,294.0309,66.0444,0,U,57530,999,16075,.45140452E-3,.1219E-3,0
STARLINK-30268,2023-115L,2026-07-08T07:21:14.086656,15.27590451,.00012326,43.0072,40.8062,248.5554,111.5166,0,U,57531,999,16079,.96325317E-4,.239E-4,0
STARLINK-30251,2023-115M,2026-07-07T23:56:09.282624,15.27575651,.00018027,43.0039,41.9285,282.2371,77.8278,0,U,57532,999,16075,.28047783E-4,.509E-5,0
STARLINK-30254,2023-115N,2026-07-08T05:17:36.018528,15.27535655,.00011213,43.0013,142.4649,268.1404,91.9319,0,U,57533,999,16379,.28448526E-3,.7564E-4,0
STARLINK-30264,2023-115P,2026-07-08T10:31:01.817472,15.27592600,.00006197,42.9986,246.9744,274.3981,85.6800,0,U,57534,999,16382,.36845486E-4,.753E-5,0
STARLINK-30166,2023-119A,2026-07-08T11:45:29.949408,15.27576859,.00011172,42.9986,119.1597,273.2960,86.7764,0,U,57602,999,16150,.12296931E-3,.3123E-4,0
STARLINK-30223,2023-119B,2026-07-08T14:01:51.077280,15.11610921,.00058348,43.0007,137.7332,153.3990,206.7156,0,U,57603,999,16134,.12434816E-2,.21342E-3,0
STARLINK-30218,2023-119C,2026-07-08T04:26:10.890528,15.27564714,.00012238,43.0023,121.1740,291.3727,68.6994,0,U,57604,999,16151,.10558974E-3,.2643E-4,0
STARLINK-30138,2023-119D,2026-07-08T12:22:30.178848,15.27584988,.00018543,43.0041,119.3515,262.3732,97.6910,0,U,57605,999,16156,.151633E-3,.3913E-4,0
STARLINK-30255,2023-119E,2026-07-08T11:52:55.188480,15.27582541,.00014718,43.0007,119.1950,272.8068,87.2615,0,U,57606,999,16156,.19166698E-3,.5016E-4,0
STARLINK-30252,2023-119F,2026-07-08T11:12:58.793760,15.27585584,.00015026,43.0040,104.5552,265.3839,94.6841,0,U,57607,999,16173,.70134861E-4,.1668E-4,0
STARLINK-30258,2023-119G,2026-07-08T05:03:10.833984,15.27574777,.0000964,43.0018,121.3475,221.6254,138.4525,0,U,57608,999,16151,.1840497E-3,.4805E-4,0
STARLINK-30174,2023-119H,2026-07-07T23:03:02.728800,15.27556887,.00021863,42.9998,122.0593,178.7900,181.2957,0,U,57609,999,16148,-.48759364E-4,-.1603E-4,0
STARLINK-30248,2023-119J,2026-07-08T05:10:23.276352,15.27574688,.00010754,43.0017,120.5367,235.6729,124.4021,0,U,57610,999,16152,.15626946E-3,.404E-4,0
STARLINK-30052,2023-119K,2026-07-08T03:51:01.052640,15.27578190,.00014119,43.0033,120.9826,273.6973,86.3717,0,U,57611,999,16149,.30614718E-4,.58E-5,0
STARLINK-30245,2023-119L,2026-07-08T03:38:04.499808,15.27562625,.00009509,43.0024,120.9119,262.7846,97.2898,0,U,57612,999,16151,-.62866719E-4,-.199E-4,0
STARLINK-30041,2023-119M,2026-07-08T03:52:52.493952,15.27582395,.00013172,43.0023,120.9862,276.4380,83.6322,0,U,57613,999,16151,.71363058E-4,.1702E-4,0
STARLINK-30244,2023-119N,2026-07-08T11:54:45.260352,15.27571657,.00014891,43.0015,119.1980,254.7867,105.2820,0,U,57614,999,16156,.74598354E-4,.1791E-4,0
