STARLINK-30231          
1 57514U 23113V   26189.31220333  .00000738  00000+0  36333-4 0  9994
2 57514  43.0024  54.7795 0001003 264.8186  95.2551 15.27576320162120
STARLINK-30081          
1 57515U 23113W   26189.03139241  .00006677  00000+0  25212-3 0  9992
2 57515  43.0042  56.1332 0001797 270.4856  89.5790 15.27556778162082
STARLINK-30149          
1 57516U 23113X   26189.04552416  .00001668  00000+0  70101-4 0  9990
2 57516  43.0036  56.2327 0001291 301.9135  58.1591 15.27584928161987
STARLINK-30259          
1 57521U 23115A   26189.28070810 -.00003898  00000+0 -13214-3 0  9997
2 57521  43.0026  40.6082 0001835 267.1995  92.8646 15.27594409162014
STARLINK-30256          
1 57522U 23115B   26188.97561868  .00000890  00000+0  41867-4 0  9994
2 57522  43.0062  42.6126 0002797 257.1799 102.8740 15.27582843160749
STARLINK-30261          
1 57523U 23115C   26189.29484320 -.00000358  00000+0 -34588-5 0  9992
2 57523  43.0030  40.7069 0002566 261.9172  98.1388 15.27585545160794
STARLINK-30260          
1 57524U 23115D   26189.27686526 -.00003844  00000+0 -13018-3 0  9999
2 57524  43.0016  40.5930 0001083   2.1457 357.9399 15.27595932160797
STARLINK-30253          
1 57525U 23115E   26189.28843382  .00008813  00000+0  32967-3 0  9999
2 57525  43.0033  40.6644 0000629 292.4734  67.6050 15.27554047160798
STARLINK-30257          
1 57526U 23115F   26189.28457952  .00004667  00000+0  17902-3 0  9999
2 57526  43.0030  40.6600 0001165 265.7224  94.3494 15.27578742160798
STARLINK-30250          
1 57527U 23115G   26189.29228262 -.00000621  00000+0 -13038-4 0  9996
2 57527  43.0028  40.6883 0001321 270.0425  90.0276 15.27573365161692
STARLINK-30269          
1 57528U 23115H   26189.31024288 -.00019364  00000+0 -69397-3 0  9994
2 57528  43.0029  40.8485 0002225 298.3819  61.6808 15.27671934160794
STARLINK-30266          
1 57529U 23115J   26188.93579106  .00001675  00000+0  70359-4 0  9991
2 57529  43.0023  42.3194 0001435 261.1939  98.8750 15.27584561160748
STARLINK-30270          
1 57530U 23115K   26188.99347552  .00012190  00000+0  45140-3 0  9990
2 57530  43.0040  41.9045 0000939 294.0309  66.0444 15.27605750160755
STARLINK-30268          
1 57531U 23115L   26189.30641304  .00002390  00000+0  96325-4 0  9992
2 57531  43.0072  40.8062 0001232 248.5554 111.5166 15.27590451160793
STARLINK-30251          
1 57532U 23115M   26188.99732966  .00000509  00000+0  28048-4 0  9999
2 57532  43.0039  41.9285 0001802 282.2371  77.8278 15.27575651160750
STARLINK-30254          
1 57533U 23115N   26189.22055577  .00007564  00000+0  28449-3 0  9995
2 57533  43.0013 142.4649 0001121 268.1404  91.9319 15.27535655163798
STARLINK-30264          
1 57534U 23115P   26189.43821548  .00000753  00000+0  36845-4 0  9991
2 57534  42.9986 246.9744 0000619 274.3981  85.6800 15.27592600163824
STARLINK-30166          
1 57602U 23119A   26189.48992997  .00003123  00000+0  12297-3 0  9991
2 57602  42.9986 119.1597 0001117 273.2960  86.7764 15.27576859161508
STARLINK-30223          
1 57603U 23119B   26189.58461895  .00021342  00000+0  12435-2 0  9997
2 57603  43.0007 137.7332 0005834 153.3990 206.7156 15.11610921161342
STARLINK-30218          
1 57604U 23119C   26189.18484827  .00002643  00000+0  10559-3 0  9993
2 57604  43.0023 121.1740 0001223 291.3727  68.6994 15.27564714161519
STARLINK-30138          
1 57605U 23119D   26189.51562707  .00003913  00000+0  15163-3 0  9992
2 57605  43.0041 119.3515 0001854 262.3732  97.6910 15.27584988161563
STARLINK-30255          
1 57606U 23119E   26189.49508320  .00005016  00000+0  19167-3 0  9995
2 57606  43.0007 119.1950 0001471 272.8068  87.2615 15.27582541161560
STARLINK-30252          
1 57607U 23119F   26189.46734715  .00001668  00000+0  70135-4 0  9994
2 57607  43.0040 104.5552 0001502 265.3839  94.6841 15.27585584161734
STARLINK-30258          
1 57608U 23119G   26189.21054206  .00004805  00000+0  18405-3 0  9995
2 57608  43.0018 121.3475 0000964 221.6254 138.4525 15.27574777161512
STARLINK-30174          
1 57609U 23119H   26188.96044825 -.00001603  00000+0 -48759-4 0  9994
2 57609  42.9998 122.0593 0002186 178.7900 181.2957 15.27556887161488
STARLINK-30248          
1 57610U 23119J   26189.21554718  .00004040  00000+0  15627-3 0  9995
2 57610  43.0017 120.5367 0001075 235.6729 124.4021 15.27574688161529
STARLINK-30052          
1 57611U 23119K   26189.16042885  .00000580  00000+0  30615-4 0  9997
2 57611  43.0033 120.9826 0001411 273.6973  86.3717 15.27578190161495
STARLINK-30245          
1 57612U 23119L   26189.15144097 -.00001990  00000+0 -62867-4 0  9997
2 57612  43.0024 120.9119 0000950 262.7846  97.2898 15.27562625161516
STARLINK-30041          
1 57613U 23119M   26189.16171868  .00001702  00000+0  71363-4 0  9995
2 57613  43.0023 120.9862 0001317 276.4380  83.6322 15.27582395161511
STARLINK-30244          
1 57614U 23119N   26189.49635718  .00001791  00000+0  74598-4 0  9992
2 57614  43.0015 119.1980 0001489 254.7867 105.2820 15.27571657161561
